start=new Date('2023-04-19T00:00:00.000Z').valueOf();
sats=[{"MEAN_MOTION":"15.08847321","RA_OF_ASC_NODE":"185.1754","PERIOD":"95.437","CLASSIFICATION_TYPE":"U","RCS_SIZE":"LARGE","INCLINATION":"53.2152","MEAN_MOTION_DDOT":"0.0000000000000","DECAY_DATE":null,"GP_ID":"230331689","REV_AT_EPOCH":"3923","COUNTRY_CODE":"US","CENTER_NAME":"EARTH","ARG_OF_PERICENTER":"71.9844","ELEMENT_SET_NO":"999","EPOCH":"2023-04-18T13:56:11.152032","NORAD_CAT_ID":"53391","APOAPSIS":"540.642","MEAN_ELEMENT_THEORY":"SGP4","OBJECT_ID":"2022-097D","REF_FRAME":"TEME","MEAN_ANOMALY":"288.1293","PERIAPSIS":"538.804","SEMIMAJOR_AXIS":"6917.858","SITE":"AFETR","ECCENTRICITY":"0.00013280","OBJECT_NAME":"STARLINK-4521","BSTAR":"0.00030722000000","FILE":"3889987","OBJECT_TYPE":"PAYLOAD","TIME_SYSTEM":"UTC","TLE_LINE2":"2 53391  53.2152 185.1754 0001328  71.9844 288.1293 15.08847321 39238","TLE_LINE1":"1 53391U 22097D   23108.58068463  .00004606  00000-0  30722-3 0  9998","MEAN_MOTION_DOT":"0.00004606","LAUNCH_DATE":"2022-08-10","EPHEMERIS_TYPE":"0"},{"ELEMENT_SET_NO":"999","EPOCH":"2023-04-18T15:20:58.135200","NORAD_CAT_ID":"53392","APOAPSIS":"540.647","GP_ID":"230331940","DECAY_DATE":null,"COUNTRY_CODE":"US","REV_AT_EPOCH":"3924","CENTER_NAME":"EARTH","ARG_OF_PERICENTER":"99.1723","RCS_SIZE":"LARGE","INCLINATION":"53.2143","MEAN_MOTION_DDOT":"0.0000000000000","MEAN_MOTION":"15.08843903","RA_OF_ASC_NODE":"184.9123","PERIOD":"95.437","CLASSIFICATION_TYPE":"U","TLE_LINE1":"1 53392U 22097E   23108.63956175  .00003771  00000-0  25487-3 0  9995","LAUNCH_DATE":"2022-08-10","MEAN_MOTION_DOT":"0.00003771","EPHEMERIS_TYPE":"0","BSTAR":"0.00025487000000","OBJECT_TYPE":"PAYLOAD","FILE":"3889987","TLE_LINE2":"2 53392  53.2143 184.9123 0001320  99.1723 260.9418 15.08843903 39246","TIME_SYSTEM":"UTC","PERIAPSIS":"538.820","ECCENTRICITY":"0.00013200","SITE":"AFETR","OBJECT_NAME":"STARLINK-4535","SEMIMAJOR_AXIS":"6917.868","REF_FRAME":"TEME","MEAN_ELEMENT_THEORY":"SGP4","OBJECT_ID":"2022-097E","MEAN_ANOMALY":"260.9418"},{"CLASSIFICATION_TYPE":"U","PERIOD":"95.437","RA_OF_ASC_NODE":"184.8960","MEAN_MOTION":"15.08853197","INCLINATION":"53.2159","RCS_SIZE":"LARGE","MEAN_MOTION_DDOT":"0.0000000000000","CENTER_NAME":"EARTH","ARG_OF_PERICENTER":"99.3159","COUNTRY_CODE":"US","REV_AT_EPOCH":"3924","GP_ID":"230332188","DECAY_DATE":null,"APOAPSIS":"540.514","NORAD_CAT_ID":"53393","EPOCH":"2023-04-18T15:26:15.901440","ELEMENT_SET_NO":"999","MEAN_ANOMALY":"260.7965","REF_FRAME":"TEME","MEAN_ELEMENT_THEORY":"SGP4","OBJECT_ID":"2022-097F","ECCENTRICITY":"0.00011690","SITE":"AFETR","OBJECT_NAME":"STARLINK-4530","SEMIMAJOR_AXIS":"6917.840","PERIAPSIS":"538.896","TIME_SYSTEM":"UTC","TLE_LINE2":"2 53393  53.2159 184.8960 0001169  99.3159 260.7965 15.08853197 39249","OBJECT_TYPE":"PAYLOAD","FILE":"3889987","BSTAR":"0.00042589000000","EPHEMERIS_TYPE":"0","LAUNCH_DATE":"2022-08-10","MEAN_MOTION_DOT":"0.00006499","TLE_LINE1":"1 53393U 22097F   23108.64323960  .00006499  00000-0  42589-3 0  9999"},{"DECAY_DATE":null,"GP_ID":"230331442","REV_AT_EPOCH":"3938","COUNTRY_CODE":"US","ARG_OF_PERICENTER":"93.5647","CENTER_NAME":"EARTH","ELEMENT_SET_NO":"999","EPOCH":"2023-04-18T14:30:38.421504","NORAD_CAT_ID":"53394","APOAPSIS":"540.715","MEAN_MOTION":"15.08849473","RA_OF_ASC_NODE":"174.8440","PERIOD":"95.437","CLASSIFICATION_TYPE":"U","MEAN_MOTION_DDOT":"0.0000000000000","RCS_SIZE":"LARGE","INCLINATION":"53.2163","BSTAR":"0.00028804000000","FILE":"3889987","OBJECT_TYPE":"PAYLOAD","TLE_LINE2":"2 53394  53.2163 174.8440 0001443  93.5647 266.5510 15.08849473 39387","TIME_SYSTEM":"UTC","TLE_LINE1":"1 53394U 22097G   23108.60461136  .00004300  00000-0  28804-3 0  9997","MEAN_MOTION_DOT":"0.00004300","LAUNCH_DATE":"2022-08-10","EPHEMERIS_TYPE":"0","MEAN_ELEMENT_THEORY":"SGP4","OBJECT_ID":"2022-097G","REF_FRAME":"TEME","MEAN_ANOMALY":"266.5510","PERIAPSIS":"538.718","SEMIMAJOR_AXIS":"6917.851","OBJECT_NAME":"STARLINK-4544","SITE":"AFETR","ECCENTRICITY":"0.00014430"},{"ELEMENT_SET_NO":"999","EPOCH":"2023-04-18T15:15:40.121856","NORAD_CAT_ID":"53395","APOAPSIS":"540.703","GP_ID":"230331191","DECAY_DATE":null,"COUNTRY_CODE":"US","REV_AT_EPOCH":"3908","CENTER_NAME":"EARTH","ARG_OF_PERICENTER":"82.0907","RCS_SIZE":"LARGE","MEAN_MOTION_DDOT":"0.0000000000000","INCLINATION":"53.2166","MEAN_MOTION":"15.08854581","RA_OF_ASC_NODE":"184.9275","PERIOD":"95.437","CLASSIFICATION_TYPE":"U","TLE_LINE1":"1 53395U 22097H   23108.63588104  .00007999  00000-0  51988-3 0  9992","LAUNCH_DATE":"2022-08-10","MEAN_MOTION_DOT":"0.00007999","EPHEMERIS_TYPE":"0","BSTAR":"0.00051988000000","OBJECT_TYPE":"PAYLOAD","FILE":"3889987","TLE_LINE2":"2 53395  53.2166 184.9275 0001448  82.0907 278.0249 15.08854581 39086","TIME_SYSTEM":"UTC","PERIAPSIS":"538.699","OBJECT_NAME":"STARLINK-4534","SITE":"AFETR","ECCENTRICITY":"0.00014480","SEMIMAJOR_AXIS":"6917.836","REF_FRAME":"TEME","MEAN_ELEMENT_THEORY":"SGP4","OBJECT_ID":"2022-097H","MEAN_ANOMALY":"278.0249"},{"SEMIMAJOR_AXIS":"6917.851","SITE":"AFETR","ECCENTRICITY":"0.00012570","OBJECT_NAME":"STARLINK-4524","PERIAPSIS":"538.846","MEAN_ANOMALY":"264.8564","OBJECT_ID":"2022-097J","MEAN_ELEMENT_THEORY":"SGP4","REF_FRAME":"TEME","EPHEMERIS_TYPE":"0","MEAN_MOTION_DOT":"0.00000480","LAUNCH_DATE":"2022-08-10","TLE_LINE1":"1 53396U 22097J   23108.68739537  .00000480  00000-0  48263-4 0  9997","TIME_SYSTEM":"UTC","TLE_LINE2":"2 53396  53.2163 184.6985 0001257  95.2571 264.8564 15.08849623 39095","FILE":"3889987","OBJECT_TYPE":"PAYLOAD","BSTAR":"0.00004826300000","INCLINATION":"53.2163","RCS_SIZE":"LARGE","MEAN_MOTION_DDOT":"0.0000000000000","CLASSIFICATION_TYPE":"U","PERIOD":"95.437","RA_OF_ASC_NODE":"184.6985","MEAN_MOTION":"15.08849623","APOAPSIS":"540.586","NORAD_CAT_ID":"53396","EPOCH":"2023-04-18T16:29:50.959968","ELEMENT_SET_NO":"999","CENTER_NAME":"EARTH","ARG_OF_PERICENTER":"95.2571","REV_AT_EPOCH":"3909","COUNTRY_CODE":"US","GP_ID":"230332440","DECAY_DATE":null},{"EPHEMERIS_TYPE":"0","LAUNCH_DATE":"2022-08-10","MEAN_MOTION_DOT":"0.00010717","TLE_LINE1":"1 53397U 22097K   23108.89716507  .00010717  00000-0  69029-3 0  9999","TIME_SYSTEM":"UTC","TLE_LINE2":"2 53397  53.2148 183.7553 0001418  93.2820 266.8334 15.08845578 38635","OBJECT_TYPE":"PAYLOAD","FILE":"3889937","BSTAR":"0.00069029000000","SITE":"AFETR","OBJECT_NAME":"STARLINK-4515","ECCENTRICITY":"0.00014180","SEMIMAJOR_AXIS":"6917.863","PERIAPSIS":"538.747","MEAN_ANOMALY":"266.8334","REF_FRAME":"TEME","OBJECT_ID":"2022-097K","MEAN_ELEMENT_THEORY":"SGP4","APOAPSIS":"540.709","NORAD_CAT_ID":"53397","EPOCH":"2023-04-18T21:31:55.062048","ELEMENT_SET_NO":"999","ARG_OF_PERICENTER":"93.2820","CENTER_NAME":"EARTH","COUNTRY_CODE":"US","REV_AT_EPOCH":"3863","GP_ID":"230308025","DECAY_DATE":null,"RCS_SIZE":"LARGE","MEAN_MOTION_DDOT":"0.0000000000000","INCLINATION":"53.2148","CLASSIFICATION_TYPE":"U","PERIOD":"95.437","RA_OF_ASC_NODE":"183.7553","MEAN_MOTION":"15.08845578"},{"RA_OF_ASC_NODE":"184.7311","MEAN_MOTION":"15.08851568","CLASSIFICATION_TYPE":"U","PERIOD":"95.437","MEAN_MOTION_DDOT":"0.0000000000000","RCS_SIZE":"LARGE","INCLINATION":"53.2161","GP_ID":"230304841","DECAY_DATE":null,"ARG_OF_PERICENTER":"103.9752","CENTER_NAME":"EARTH","COUNTRY_CODE":"US","REV_AT_EPOCH":"3860","EPOCH":"2023-04-18T16:19:15.360096","ELEMENT_SET_NO":"999","APOAPSIS":"540.512","NORAD_CAT_ID":"53398","MEAN_ANOMALY":"256.1369","REF_FRAME":"TEME","MEAN_ELEMENT_THEORY":"SGP4","OBJECT_ID":"2022-097L","SITE":"AFETR","OBJECT_NAME":"STARLINK-4512","ECCENTRICITY":"0.00011590","SEMIMAJOR_AXIS":"6917.845","PERIAPSIS":"538.908","BSTAR":"0.00051985000000","TLE_LINE2":"2 53398  53.2161 184.7311 0001159 103.9752 256.1369 15.08851568 38602","TIME_SYSTEM":"UTC","OBJECT_TYPE":"PAYLOAD","FILE":"3889802","LAUNCH_DATE":"2022-08-10","MEAN_MOTION_DOT":"0.00007998","TLE_LINE1":"1 53398U 22097L   23108.68003889  .00007998  00000-0  51985-3 0  9998","EPHEMERIS_TYPE":"0"},{"RA_OF_ASC_NODE":"184.9794","MEAN_MOTION":"15.08848659","CLASSIFICATION_TYPE":"U","PERIOD":"95.437","RCS_SIZE":"LARGE","INCLINATION":"53.2140","MEAN_MOTION_DDOT":"0.0000000000000","GP_ID":"230331690","DECAY_DATE":null,"CENTER_NAME":"EARTH","ARG_OF_PERICENTER":"75.6657","COUNTRY_CODE":"US","REV_AT_EPOCH":"3908","EPOCH":"2023-04-18T14:59:46.525056","ELEMENT_SET_NO":"999","APOAPSIS":"540.702","NORAD_CAT_ID":"53399","MEAN_ANOMALY":"284.4493","REF_FRAME":"TEME","OBJECT_ID":"2022-097M","MEAN_ELEMENT_THEORY":"SGP4","ECCENTRICITY":"0.00014210","SITE":"AFETR","OBJECT_NAME":"STARLINK-4528","SEMIMAJOR_AXIS":"6917.854","PERIAPSIS":"538.736","BSTAR":"0.00032906000000","TIME_SYSTEM":"UTC","TLE_LINE2":"2 53399  53.2140 184.9794 0001421  75.6657 284.4493 15.08848659 39080","OBJECT_TYPE":"PAYLOAD","FILE":"3889987","LAUNCH_DATE":"2022-08-10","MEAN_MOTION_DOT":"0.00004954","TLE_LINE1":"1 53399U 22097M   23108.62484404  .00004954  00000-0  32906-3 0  9990","EPHEMERIS_TYPE":"0"},{"MEAN_ELEMENT_THEORY":"SGP4","OBJECT_ID":"2022-097N","REF_FRAME":"TEME","MEAN_ANOMALY":"267.3873","PERIAPSIS":"538.855","SEMIMAJOR_AXIS":"6917.859","SITE":"AFETR","OBJECT_NAME":"STARLINK-4520","ECCENTRICITY":"0.00012560","FILE":"3889987","OBJECT_TYPE":"PAYLOAD","TIME_SYSTEM":"UTC","TLE_LINE2":"2 53400  53.2142 185.0796 0001256  92.7263 267.3873 15.08846923 39082","BSTAR":"0.00061286000000","EPHEMERIS_TYPE":"0","TLE_LINE1":"1 53400U 22097N   23108.60276380  .00009481  00000-0  61286-3 0  9996","MEAN_MOTION_DOT":"0.00009481","LAUNCH_DATE":"2022-08-10","PERIOD":"95.437","CLASSIFICATION_TYPE":"U","MEAN_MOTION":"15.08846923","RA_OF_ASC_NODE":"185.0796","INCLINATION":"53.2142","RCS_SIZE":"LARGE","MEAN_MOTION_DDOT":"0.0000000000000","REV_AT_EPOCH":"3908","COUNTRY_CODE":"US","ARG_OF_PERICENTER":"92.7263","CENTER_NAME":"EARTH","GP_ID":"230331941","DECAY_DATE":null,"NORAD_CAT_ID":"53400","APOAPSIS":"540.593","ELEMENT_SET_NO":"999","EPOCH":"2023-04-18T14:27:58.792320"}];
